[{"OBJECT_NAME":"OBJECT A","OBJECT_ID":"2023-189A","EPOCH":"2026-03-09T22:59:06.381600","MEAN_MOTION":15.32403275,"ECCENTRICITY":0.00094831,"INCLINATION":97.4458,"RA_OF_ASC_NODE":86.5997,"ARG_OF_PERICENTER":249.5377,"MEAN_ANOMALY":110.4847,"EPHEMERIS_TYPE":0,"CLASSIFICATION_TYPE":"U","NORAD_CAT_ID":58502,"ELEMENT_SET_NO":999,"REV_AT_EPOCH":12601,"BSTAR":0.00019874471,"MEAN_MOTION_DOT":6.146e-5,"MEAN_MOTION_DDOT":0},{"OBJECT_NAME":"STARLINK-35919","OBJECT_ID":"2025-283L","EPOCH":"2026-03-09T04:03:30.667680","MEAN_MOTION":15.30185332,"ECCENTRICITY":0.00012465,"INCLINATION":53.1608,"RA_OF_ASC_NODE":26.6427,"ARG_OF_PERICENTER":77.0606,"MEAN_ANOMALY":283.0534,"EPHEMERIS_TYPE":0,"CLASSIFICATION_TYPE":"U","NORAD_CAT_ID":66888,"ELEMENT_SET_NO":999,"REV_AT_EPOCH":1576,"BSTAR":0.001416911,"MEAN_MOTION_DOT":0.00041823,"MEAN_MOTION_DDOT":0}]
